NORAD_CAT_ID,OBJECT_NAME,OBJECT_TYPE,EPOCH,MEAN_MOTION,ECCENTRICITY,INCLINATION,RA_OF_ASC_NODE,ARG_OF_PERICENTER,MEAN_ANOMALY,BSTAR,MEAN_MOTION_DOT,MEAN_MOTION_DDOT,TLE_LINE0,TLE_LINE1,TLE_LINE2,SEMIMAJOR_AXIS,PERIOD,APOGEE,PERIGEE,DECAYED
49420.0,STARLINK-3110,PAYLOAD,2024-07-14 21:59:23,15.08839501,0.0001337,53.2166,55.0754,86.7201,273.3944,0.0001803,2.583e-05,0.0,0 STARLINK-3110,1 49420U 21104N   24196.91624936  .00002583  00000-0  18030-3 0  9992,2 49420  53.2166  55.0754 0001337  86.7201 273.3944 15.08839501147620,6917.882,95.438,540.672,538.822,0.0
49420.0,STARLINK-3110,PAYLOAD,2024-07-15 07:31:42,15.08850151,0.0001148,53.2164,53.2943,94.1199,265.9925,0.00053118,8.178e-05,0.0,0 STARLINK-3110,1 49420U 21104N   24197.31368691  .00008178  00000-0  53118-3 0  9992,2 49420  53.2164  53.2943 0001148  94.1199 265.9925 15.08850151147683,6917.849,95.437,540.509,538.92,0.0
49420.0,STARLINK-3110,PAYLOAD,2024-07-15 21:50:10,15.08857039,0.0001388,53.2164,50.6184,86.6909,273.4242,0.00059255,9.159e-05,0.0,0 STARLINK-3110,1 49420U 21104N   24197.90984359  .00009159  00000-0  59255-3 0  9990,2 49420  53.2164  50.6184 0001388  86.6909 273.4242 15.08857039147770,6917.828,95.436,540.654,538.733,0.0
49420.0,STARLINK-3110,PAYLOAD,2024-07-15 23:25:33,15.08860925,0.0001416,53.2164,50.3203,83.6551,276.4603,0.00064072,9.93e-05,0.0,0 STARLINK-3110,1 49420U 21104N   24197.97608204  .00009930  00000-0  64072-3 0  9999,2 49420  53.2164  50.3203 0001416  83.6551 276.4603 15.08860925148897,6917.816,95.436,540.661,538.702,0.0
49420.0,STARLINK-3110,PAYLOAD,2024-07-16 20:05:33,15.0885948,0.0001155,53.2162,46.4506,107.9701,252.1417,0.0001022,1.34e-05,0.0,0 STARLINK-3110,1 49420U 21104N   24198.83719413  .00001340  00000-0  10220-3 0  9993,2 49420  53.2162  46.4506 0001155 107.9701 252.1417 15.08859480149028,6917.821,95.436,540.485,538.887,0.0
49420.0,STARLINK-3110,PAYLOAD,2024-07-16 21:40:56,15.08859557,0.0001321,53.2162,46.1562,117.3558,242.7569,9.6489e-05,1.249e-05,0.0,0 STARLINK-3110,1 49420U 21104N   24198.90343551  .00001249  00000-0  96489-4 0  9997,2 49420  53.2162  46.1562 0001321 117.3558 242.7569 15.08859557147922,6917.821,95.436,540.599,538.772,0.0
49420.0,STARLINK-3110,PAYLOAD,2024-07-17 07:13:14,15.0886203,0.0001228,53.2172,44.3663,104.9534,255.1594,0.00013231,1.82e-05,0.0,0 STARLINK-3110,1 49420U 21104N   24199.30086757  .00001820  00000-0  13231-3 0  9992,2 49420  53.2172  44.3663 0001228 104.9534 255.1594 15.08862030147989,6917.813,95.436,540.528,538.829,0.0
49420.0,STARLINK-3110,PAYLOAD,2024-07-17 19:56:20,15.08831723,0.0001329,53.2165,41.9916,93.7317,266.3827,-0.00030016,-5.061e-05,0.0,0 STARLINK-3110,1 49420U 21104N   24199.83079650 -.00005061  00000-0 -30016-3 0  9997,2 49420  53.2165  41.9916 0001329  93.7317 266.3827 15.08831723149172,6917.906,95.438,540.69,538.851,0.0
49420.0,STARLINK-3110,PAYLOAD,2024-07-18 07:04:02,15.08840445,0.000148,53.2177,39.9058,123.8862,236.2271,0.00019491,2.815e-05,0.0,0 STARLINK-3110,1 49420U 21104N   24200.29447568  .00002815  00000-0  19491-3 0  9993,2 49420  53.2177  39.9058 0001480 123.8862 236.2271 15.08840445149245,6917.879,95.438,540.768,538.72,0.0
49420.0,STARLINK-3110,PAYLOAD,2024-07-18 19:47:08,15.08837798,0.0001576,53.2178,37.5283,116.5,243.6153,0.00018211,2.611e-05,0.0,0 STARLINK-3110,1 49420U 21104N   24200.82440096  .00002611  00000-0  18211-3 0  9994,2 49420  53.2178  37.5283 0001576 116.5000 243.6153 15.08837798148213,6917.887,95.438,540.842,538.662,0.0
49420.0,STARLINK-3110,PAYLOAD,2024-07-18 22:57:54,15.08838809,0.0001669,53.2181,36.933,115.7553,244.3611,0.00022317,3.265e-05,0.0,0 STARLINK-3110,1 49420U 21104N   24200.95688191  .00003265  00000-0  22317-3 0  9996,2 49420  53.2181  36.9330 0001669 115.7553 244.3611 15.08838809149346,6917.884,95.438,540.904,538.594,0.0
49420.0,STARLINK-3110,PAYLOAD,2024-07-19 19:37:55,15.08841993,0.0001303,53.2176,33.0672,101.5707,258.5431,0.00032148,4.832e-05,0.0,0 STARLINK-3110,1 49420U 21104N   24201.81800455  .00004832  00000-0  32148-3 0  9995,2 49420  53.2176  33.0672 0001303 101.5707 258.5431 15.08841993148362,6917.874,95.437,540.641,538.838,0.0
49420.0,STARLINK-3110,PAYLOAD,2024-07-20 19:28:42,15.08839392,0.0001173,53.217,28.608,92.5375,267.5751,7.0704e-05,8.38e-06,0.0,0 STARLINK-3110,1 49420U 21104N   24202.81160592  .00000838  00000-0  70704-4 0  9990,2 49420  53.2170  28.6080 0001173  92.5375 267.5751 15.08839392149629,6917.882,95.438,540.559,538.936,0.0
49420.0,STARLINK-3110,PAYLOAD,2024-07-21 05:01:00,15.0885348,0.00012,53.2178,26.8267,84.1489,275.964,0.00023064,3.386e-05,0.0,0 STARLINK-3110,1 49420U 21104N   24203.20903828  .00003386  00000-0  23064-3 0  9998,2 49420  53.2178  26.8267 0001200  84.1489 275.9640 15.08853480149688,6917.839,95.437,540.534,538.874,0.0
49420.0,STARLINK-3110,PAYLOAD,2024-07-21 17:44:07,15.08832092,0.0001284,53.2174,24.4498,95.3978,264.7161,-4.0284e-05,-9.29e-06,0.0,0 STARLINK-3110,1 49420U 21104N   24203.73897072 -.00000929  00000-0 -40284-4 0  9995,2 49420  53.2174  24.4498 0001284  95.3978 264.7161 15.08832092149762,6917.905,95.438,540.658,538.881,0.0
49420.0,STARLINK-3110,PAYLOAD,2024-07-22 20:45:40,15.08844457,0.0001236,53.2173,19.3949,103.2509,256.8621,0.00016507,2.341e-05,0.0,0 STARLINK-3110,1 49420U 21104N   24204.86504730  .00002341  00000-0  16507-3 0  9994,2 49420  53.2173  19.3949 0001236 103.2509 256.8621 15.08844457148828,6917.867,95.437,540.587,538.877,0.0
49420.0,STARLINK-3110,PAYLOAD,2024-07-23 04:42:35,15.08856021,0.0002246,53.2164,17.9047,70.3558,289.7677,0.00042214,6.44e-05,0.0,0 STARLINK-3110,1 49420U 21104N   24205.19624809  .00006440  00000-0  42214-3 0  9999,2 49420  53.2164  17.9047 0002246  70.3558 289.7677 15.08856021149985,6917.831,95.437,541.25,538.143,0.0
49420.0,STARLINK-3110,PAYLOAD,2024-07-24 10:54:55,15.0883838,0.0001551,53.2173,12.2554,117.7955,242.3195,6.4863e-05,7.44e-06,0.0,0 STARLINK-3110,1 49420U 21104N   24206.45481034  .00000744  00000-0  64863-4 0  9996,2 49420  53.2173  12.2554 0001551 117.7955 242.3195 15.08838380150172,6917.885,95.438,540.823,538.677,0.0
49420.0,STARLINK-3110,PAYLOAD,2024-07-24 20:27:15,15.08835726,0.0003338,53.2169,10.4741,77.8725,282.2641,-8.698e-05,-1.673e-05,0.0,0 STARLINK-3110,1 49420U 21104N   24206.85225834 -.00001673  00000-0 -86980-4 0  9992,2 49420  53.2169  10.4741 0003338  77.8725 282.2641 15.08835726149124,6917.893,95.438,542.068,537.449,0.0
49420.0,STARLINK-3110,PAYLOAD,2024-07-25 20:18:02,15.08841778,0.0003129,53.2165,6.0136,78.6294,281.5049,6.2684e-05,7.09e-06,0.0,0 STARLINK-3110,1 49420U 21104N   24207.84585755  .00000709  00000-0  62684-4 0  9995,2 49420  53.2165   6.0136 0003129  78.6294 281.5049 15.08841778149271,6917.875,95.437,541.905,537.575,0.0
49420.0,STARLINK-3110,PAYLOAD,2024-07-26 04:14:56,15.08845208,0.0001375,53.2168,4.5256,97.1455,262.9693,0.00012196,1.654e-05,0.0,0 STARLINK-3110,1 49420U 21104N   24208.17704774  .00001654  00000-0  12196-3 0  9998,2 49420  53.2168   4.5256 0001375  97.1455 262.9693 15.08845208149322,6917.864,95.437,540.681,538.778,0.0
49420.0,STARLINK-3110,PAYLOAD,2024-07-26 18:33:25,15.0884408,0.0001374,53.217,1.85,93.9522,266.1627,9.6705e-05,1.252e-05,0.0,0 STARLINK-3110,1 49420U 21104N   24208.77320773  .00001252  00000-0  96705-4 0  9990,2 49420  53.2170   1.8500 0001374  93.9522 266.1627 15.08844080149415,6917.868,95.437,540.683,538.782,0.0
49420.0,STARLINK-3110,PAYLOAD,2024-07-27 10:27:16,15.08838454,0.0001287,53.2171,358.8763,91.4399,268.6741,2.3513e-05,8.6e-07,0.0,0 STARLINK-3110,1 49420U 21104N   24209.43561332  .00000086  00000-0  23513-4 0  9993,2 49420  53.2171 358.8763 0001287  91.4399 268.6741 15.08838454150627,6917.885,95.438,540.64,538.86,0.0
49420.0,STARLINK-3110,PAYLOAD,2024-07-27 18:24:13,15.08832363,0.0001201,53.2182,357.3897,87.4535,272.6595,-4.5682e-05,-1.015e-05,0.0,0 STARLINK-3110,1 49420U 21104N   24209.76681975 -.00001015  00000-0 -45682-4 0  9991,2 49420  53.2182 357.3897 0001201  87.4535 272.6595 15.08832363149560,6917.904,95.438,540.6,538.938,0.0
49420.0,STARLINK-3110,PAYLOAD,2024-07-28 13:28:51,15.08830102,0.0001382,53.219,353.8188,80.3122,279.8026,-4.33e-05,-9.77e-06,0.0,0 STARLINK-3110,1 49420U 21104N   24210.56170420 -.00000977  00000-0 -43300-4 0  9990,2 49420  53.2190 353.8188 0001382  80.3122 279.8026 15.08830102150791,6917.911,95.438,540.732,538.82,0.0
49420.0,STARLINK-3110,PAYLOAD,2024-07-28 18:15:00,15.08835672,0.0001433,53.2189,352.9256,101.6151,258.5002,3.595e-05,2.84e-06,0.0,0 STARLINK-3110,1 49420U 21104N   24210.76041813  .00000284  00000-0  35950-4 0  9996,2 49420  53.2189 352.9256 0001433 101.6151 258.5002 15.08835672150820,6917.894,95.438,540.75,538.767,0.0
49420.0,STARLINK-3110,PAYLOAD,2024-07-29 02:11:55,15.08846041,0.0001192,53.2177,351.4415,91.6093,268.5036,0.00011471,1.539e-05,0.0,0 STARLINK-3110,1 49420U 21104N   24211.09160917  .00001539  00000-0  11471-3 0  9995,2 49420  53.2177 351.4415 0001192  91.6093 268.5036 15.08846041150878,6917.862,95.437,540.552,538.902,0.0
49420.0,STARLINK-3110,PAYLOAD,2024-07-29 18:05:46,15.08839557,0.0001116,53.2191,348.4678,82.0373,278.0746,8.6603e-05,1.091e-05,0.0,0 STARLINK-3110,1 49420U 21104N   24211.75401504  .00001091  00000-0  86603-4 0  9991,2 49420  53.2191 348.4678 0001116  82.0373 278.0746 15.08839557150971,6917.882,95.438,540.519,538.975,0.0
49420.0,STARLINK-3110,PAYLOAD,2024-07-30 02:02:42,15.08846204,0.0002025,53.2183,346.9809,81.2314,278.8907,0.00011823,1.594e-05,0.0,0 STARLINK-3110,1 49420U 21104N   24212.08521273  .00001594  00000-0  11823-3 0  9993,2 49420  53.2183 346.9809 0002025  81.2314 278.8907 15.08846204151028,6917.861,95.437,541.127,538.326,0.0
49420.0,STARLINK-3110,PAYLOAD,2024-07-30 19:31:56,15.08846826,0.0001376,53.2186,343.7085,88.7752,271.3398,0.00015454,2.173e-05,0.0,0 STARLINK-3110,1 49420U 21104N   24212.81385196  .00002173  00000-0  15454-3 0  9994,2 49420  53.2186 343.7085 0001376  88.7752 271.3398 15.08846826150029,6917.86,95.437,540.676,538.773,0.0
